     3.03           N: GNSS NAV DATA    E: GALILEO          RINEX VERSION / TYPE
cnvtToRINEX 3.08.0  convertToRINEX OPR  29-Jul-19 18:08 UTC PGM / RUN BY / DATE 
----------------------------------------------------------- COMMENT             
GAL    0.3600D+02  0.1406D+00  0.3906D-02                   IONOSPHERIC CORR    
GAUT  0.1303851604D-07-0.710542736D-14 345600 2045          TIME SYSTEM CORR    
                                                            END OF HEADER       
E 8 2019 03 21 12 10 00 0.638531718869D-02-0.629540863883D-11 0.000000000000D+00
     0.900000000000D+01-0.501562500000D+02 0.296655214023D-08 0.218128182820D+01
    -0.238977372646D-05 0.239976448938D-03 0.156331807375D-04 0.544062316704D+04
     0.389400000000D+06 0.279396772385D-07-0.390711040397D-02 0.521540641785D-07
     0.959467419475D+00 0.318750000000D+01-0.528437768720D+00-0.543201197939D-08
    -0.218223375594D-09 0.258000000000D+03 0.204500000000D+04 0.000000000000D+00
     0.312000000000D+01 0.000000000000D+00-0.861473381519D-08 0.000000000000D+00
     0.390130000000D+06 0.000000000000D+00 0.000000000000D+00 0.000000000000D+00
E 5 2019 03 21 12 10 00 0.878875143826D-04-0.673594513501D-11 0.000000000000D+00
     0.900000000000D+01-0.622500000000D+02 0.305798452019D-08-0.155689844266D+01
    -0.291690230370D-05 0.825874740258D-04 0.150036066771D-04 0.544062977219D+04
     0.389400000000D+06-0.242143869400D-07 0.438488481948D-02-0.108033418655D-06
     0.953500106410D+00 0.178125000000D+02-0.150155080674D+01-0.555773150183D-08
    -0.160720980388D-09 0.258000000000D+03 0.204500000000D+04 0.000000000000D+00
     0.312000000000D+01 0.000000000000D+00-0.139698386192D-08 0.000000000000D+00
     0.390130000000D+06 0.000000000000D+00 0.000000000000D+00 0.000000000000D+00
E12 2019 03 21 12 10 00 0.642126146704D-02 0.842277358970D-10 0.000000000000D+00
     0.900000000000D+01 0.143625000000D+03 0.289583490886D-08 0.122695515552D+01
     0.676885247231D-05 0.535811297596D-03 0.826083123684D-05 0.544059840012D+04
     0.389400000000D+06 0.000000000000D+00-0.210181522429D+01-0.502914190292D-07
     0.982687801737D+00 0.172718750000D+03-0.599426911577D+00-0.565416409006D-08
     0.761817447040D-09 0.258000000000D+03 0.204500000000D+04 0.000000000000D+00
     0.312000000000D+01 0.000000000000D+00-0.155996531248D-07 0.000000000000D+00
     0.390130000000D+06 0.000000000000D+00 0.000000000000D+00 0.000000000000D+00
E 2 2019 03 21 12 10 00 0.524325296283D-04 0.152056145453D-11 0.000000000000D+00
     0.900000000000D+01-0.834062500000D+02 0.329227999382D-08-0.261278763538D+00
    -0.388361513615D-05 0.293802469969D-03 0.220164656639D-05 0.544060549545D+04
     0.389400000000D+06-0.335276126862D-07 0.209776061370D+01-0.596046447754D-07
     0.988383851755D+00 0.301375000000D+03 0.604141365507D+00-0.596739142295D-08
    -0.553594488004D-09 0.258000000000D+03 0.204500000000D+04 0.000000000000D+00
     0.312000000000D+01 0.000000000000D+00-0.605359673500D-08 0.000000000000D+00
     0.390130000000D+06 0.000000000000D+00 0.000000000000D+00 0.000000000000D+00
E33 2019 03 21 12 10 00 0.847940333188D-03-0.127897692437D-12 0.000000000000D+00
     0.900000000000D+01 0.155125000000D+03 0.284726145701D-08 0.241583126733D+01
     0.721774995327D-05 0.432664528489D-03 0.882148742676D-05 0.544060237503D+04
     0.389400000000D+06 0.502914190292D-07-0.210697086944D+01-0.484287738800D-07
     0.985915569558D+00 0.161687500000D+03-0.101571994045D+01-0.567880797372D-08
     0.801461955536D-09 0.516000000000D+03 0.204500000000D+04 0.000000000000D+00
     0.312000000000D+01 0.000000000000D+00-0.814907252789D-08-0.931322574615D-08
     0.390334000000D+06 0.000000000000D+00 0.000000000000D+00 0.000000000000D+00
E33 2019 03 21 12 10 00 0.847940333188D-03-0.127897692437D-12 0.000000000000D+00
     0.900000000000D+01 0.155125000000D+03 0.284726145701D-08 0.241583126733D+01
     0.721774995327D-05 0.432664528489D-03 0.882148742676D-05 0.544060237503D+04
     0.389400000000D+06 0.502914190292D-07-0.210697086944D+01-0.484287738800D-07
     0.985915569558D+00 0.161687500000D+03-0.101571994045D+01-0.567880797372D-08
     0.801461955536D-09 0.513000000000D+03 0.204500000000D+04 0.000000000000D+00
     0.312000000000D+01 0.000000000000D+00-0.814907252789D-08-0.931322574615D-08
     0.390355000000D+06 0.000000000000D+00 0.000000000000D+00 0.000000000000D+00
E33 2019 03 21 12 10 00 0.847940973472D-03-0.127897692437D-12 0.000000000000D+00
     0.900000000000D+01 0.155125000000D+03 0.284726145701D-08 0.241583126733D+01
     0.721774995327D-05 0.432664528489D-03 0.882148742676D-05 0.544060237503D+04
     0.389400000000D+06 0.502914190292D-07-0.210697086944D+01-0.484287738800D-07
     0.985915569558D+00 0.161687500000D+03-0.101571994045D+01-0.567880797372D-08
     0.801461955536D-09 0.258000000000D+03 0.204500000000D+04 0.000000000000D+00
     0.312000000000D+01 0.000000000000D+00-0.814907252789D-08 0.000000000000D+00
     0.390380000000D+06 0.000000000000D+00 0.000000000000D+00 0.000000000000D+00
E31 2019 03 21 12 10 00 0.877550221048D-03-0.979127889877D-11 0.000000000000D+00
     0.900000000000D+01-0.817812500000D+02 0.333049587138D-08-0.175581180157D+01
    -0.404007732868D-05 0.281585380435D-04 0.217929482460D-05 0.544060867691D+04
     0.389400000000D+06 0.167638063431D-07 0.209512945313D+01 0.465661287308D-07
     0.987913659644D+00 0.306531250000D+03-0.181205241585D+01-0.598917804473D-08
    -0.551094383865D-09 0.258000000000D+03 0.204500000000D+04 0.000000000000D+00
     0.312000000000D+01 0.000000000000D+00-0.232830643654D-09 0.000000000000D+00
     0.390480000000D+06 0.000000000000D+00 0.000000000000D+00 0.000000000000D+00
E12 2019 03 21 12 20 00 0.642131135100D-02 0.841993141876D-10 0.000000000000D+00
     0.100000000000D+02 0.145781250000D+03 0.288762028098D-08 0.130075107202D+01
     0.686384737492D-05 0.535791157745D-03 0.831298530102D-05 0.544059903526D+04
     0.390000000000D+06 0.372529029846D-08-0.210181862703D+01-0.502914190292D-07
     0.982688249390D+00 0.171531250000D+03-0.598836842107D+00-0.565559272099D-08
     0.763960393445D-09 0.516000000000D+03 0.204500000000D+04 0.000000000000D+00
     0.312000000000D+01 0.000000000000D+00-0.155996531248D-07-0.155996531248D-07
     0.390694000000D+06 0.000000000000D+00 0.000000000000D+00 0.000000000000D+00
E33 2019 03 21 12 20 00 0.847940274980D-03-0.113686837722D-12 0.000000000000D+00
     0.100000000000D+02 0.155281250000D+03 0.285083303435D-08 0.249026379897D+01
     0.722147524357D-05 0.432718545198D-03 0.880844891071D-05 0.544060226059D+04
     0.390000000000D+06 0.502914190292D-07-0.210697426926D+01-0.502914190292D-07
     0.985916050858D+00 0.162093750000D+03-0.101576685477D+01-0.567916513145D-08
     0.800390482333D-09 0.516000000000D+03 0.204500000000D+04 0.000000000000D+00
     0.312000000000D+01 0.000000000000D+00-0.814907252789D-08-0.931322574615D-08
     0.390694000000D+06 0.000000000000D+00 0.000000000000D+00 0.000000000000D+00
E 2 2019 03 21 12 20 00 0.524325296283D-04 0.152056145453D-11 0.000000000000D+00
     0.100000000000D+02-0.820000000000D+02 0.329692304436D-08-0.186986742257D+00
    -0.379607081413D-05 0.293982797302D-03 0.219605863094D-05 0.544060586357D+04
     0.390000000000D+06-0.260770320892D-07 0.209775700615D+01-0.689178705215D-07
     0.988383471396D+00 0.301468750000D+03 0.604235213165D+00-0.597524889310D-08
    -0.547879964257D-09 0.516000000000D+03 0.204500000000D+04 0.000000000000D+00
     0.312000000000D+01 0.000000000000D+00-0.605359673500D-08-0.745058059692D-08
     0.390694000000D+06 0.000000000000D+00 0.000000000000D+00 0.000000000000D+00
E 8 2019 03 21 12 20 00 0.638531224104D-02-0.630961949355D-11 0.000000000000D+00
     0.100000000000D+02-0.483125000000D+02 0.297083803304D-08 0.225626572634D+01
    -0.230222940445D-05 0.240217195824D-03 0.155773013830D-04 0.544062260437D+04
     0.390000000000D+06 0.186264514923D-07-0.391041367300D-02 0.540167093277D-07
     0.959467286349D+00 0.434375000000D+01-0.529036898042D+00-0.542879755978D-08
    -0.213223167315D-09 0.516000000000D+03 0.204500000000D+04 0.000000000000D+00
     0.312000000000D+01 0.000000000000D+00-0.861473381519D-08-0.977888703346D-08
     0.390694000000D+06 0.000000000000D+00 0.000000000000D+00 0.000000000000D+00
E 5 2019 03 21 12 20 00 0.878836726770D-04-0.673594513501D-11 0.000000000000D+00
     0.100000000000D+02-0.639687500000D+02 0.306119893979D-08-0.148551953746D+01
    -0.300630927086D-05 0.824799062684D-04 0.150650739670D-04 0.544062922859D+04
     0.390000000000D+06-0.167638063431D-07 0.438155082918D-02-0.109896063805D-06
     0.953500006931D+00 0.166250000000D+02-0.149854516694D+01-0.555701718636D-08
    -0.158935191717D-09 0.516000000000D+03 0.204500000000D+04 0.000000000000D+00
     0.312000000000D+01 0.000000000000D+00-0.139698386192D-08-0.139698386192D-08
     0.390694000000D+06 0.000000000000D+00 0.000000000000D+00 0.000000000000D+00
E33 2019 03 21 12 20 00 0.847940274980D-03-0.113686837722D-12 0.000000000000D+00
     0.100000000000D+02 0.155281250000D+03 0.285083303435D-08 0.249026379897D+01
     0.722147524357D-05 0.432718545198D-03 0.880844891071D-05 0.544060226059D+04
     0.390000000000D+06 0.502914190292D-07-0.210697426926D+01-0.502914190292D-07
     0.985916050858D+00 0.162093750000D+03-0.101576685477D+01-0.567916513145D-08
     0.800390482333D-09 0.513000000000D+03 0.204500000000D+04 0.000000000000D+00
     0.312000000000D+01 0.000000000000D+00-0.814907252789D-08-0.931322574615D-08
     0.390685000000D+06 0.000000000000D+00 0.000000000000D+00 0.000000000000D+00
